{
  "type": "FeatureCollection",
  "features": [
    {
      "type": "Feature",
      "properties": {
        "norad_id": 67039,
        "name": "STARLINK-35705",
        "group": "last-30-days",
        "lat": 41.62335758699692,
        "lon": -156.93086055102896,
        "alt_km": 370.91071298936913,
        "timestamp": "2025-12-26T22:28:04.500776+00:00",
        "meta_object_name": "STARLINK-35705",
        "meta_object_id": "2025-294K",
        "meta_epoch": "2025-12-26T18:00:02.998944",
        "meta_mean_motion": 15.64655019,
        "meta_eccentricity": 0.0001339,
        "meta_inclination": 42.9997,
        "meta_ra_of_asc_node": 96.6537,
        "meta_arg_of_pericenter": 291.1776,
        "meta_mean_anomaly": 202.386,
        "meta_ephemeris_type": 0,
        "meta_classification_type": "U",
        "meta_norad_cat_id": 67039,
        "meta_element_set_no": 999,
        "meta_rev_at_epoch": 236,
        "meta_bstar": -0.021403,
        "meta_mean_motion_dot": -0.01889762,
        "meta_mean_motion_ddot": 0,
        "tle_line1": "1 67039U 25294K   25360.75003471 -.01889762  00000+0 -21403-1 0  9993",
        "tle_line2": "2 67039  42.9997  96.6537 0001339 291.1776 202.3860 15.64655019  2366"
      },
      "geometry": {
        "type": "Point",
        "coordinates": [
          -156.93086055102896,
          41.62335758699692
        ]
      }
    },
    {
      "type": "Feature",
      "properties": {
        "norad_id": 67040,
        "name": "STARLINK-35786",
        "group": "last-30-days",
        "lat": 42.00392752138491,
        "lon": -159.5610421924116,
        "alt_km": 370.809224065968,
        "timestamp": "2025-12-26T22:28:04.500786+00:00",
        "meta_object_name": "STARLINK-35786",
        "meta_object_id": "2025-294L",
        "meta_epoch": "2025-12-26T18:00:02.998944",
        "meta_mean_motion": 15.64668246,
        "meta_eccentricity": 0.0001318,
        "meta_inclination": 42.9995,
        "meta_ra_of_asc_node": 96.659,
        "meta_arg_of_pericenter": 289.9951,
        "meta_mean_anomaly": 201.5628,
        "meta_ephemeris_type": 0,
        "meta_classification_type": "U",
        "meta_norad_cat_id": 67040,
        "meta_element_set_no": 999,
        "meta_rev_at_epoch": 236,
        "meta_bstar": -0.0215,
        "meta_mean_motion_dot": -0.01898259,
        "meta_mean_motion_ddot": 0,
        "tle_line1": "1 67040U 25294L   25360.75003471 -.01898259  00000+0 -21500-1 0  9994",
        "tle_line2": "2 67040  42.9995  96.6590 0001318 289.9951 201.5628 15.64668246  2361"
      },
      "geometry": {
        "type": "Point",
        "coordinates": [
          -159.5610421924116,
          42.00392752138491
        ]
      }
    },
    {
      "type": "Feature",
      "properties": {
        "norad_id": 67041,
        "name": "STARLINK-35765",
        "group": "last-30-days",
        "lat": 41.189699714671534,
        "lon": -154.3708680624209,
        "alt_km": 370.9693712435492,
        "timestamp": "2025-12-26T22:28:04.500796+00:00",
        "meta_object_name": "STARLINK-35765",
        "meta_object_id": "2025-294M",
        "meta_epoch": "2025-12-26T18:00:02.998944",
        "meta_mean_motion": 15.64648874,
        "meta_eccentricity": 0.0001289,
        "meta_inclination": 42.9995,
        "meta_ra_of_asc_node": 96.6488,
        "meta_arg_of_pericenter": 289.9669,
        "meta_mean_anomaly": 205.5709,
        "meta_ephemeris_type": 0,
        "meta_classification_type": "U",
        "meta_norad_cat_id": 67041,
        "meta_element_set_no": 999,
        "meta_rev_at_epoch": 236,
        "meta_bstar": -0.021393,
        "meta_mean_motion_dot": -0.018886,
        "meta_mean_motion_ddot": 0,
        "tle_line1": "1 67041U 25294M   25360.75003471 -.01888600  00000+0 -21393-1 0  9994",
        "tle_line2": "2 67041  42.9995  96.6488 0001289 289.9669 205.5709 15.64648874  2360"
      },
      "geometry": {
        "type": "Point",
        "coordinates": [
          -154.3708680624209,
          41.189699714671534
        ]
      }
    },
    {
      "type": "Feature",
      "properties": {
        "norad_id": 67042,
        "name": "STARLINK-35773",
        "group": "last-30-days",
        "lat": 40.681165483657374,
        "lon": -151.75476851614968,
        "alt_km": 371.1054724198111,
        "timestamp": "2025-12-26T22:28:04.500806+00:00",
        "meta_object_name": "STARLINK-35773",
        "meta_object_id": "2025-294N",
        "meta_epoch": "2025-12-26T18:00:02.998944",
        "meta_mean_motion": 15.64637526,
        "meta_eccentricity": 0.0001321,
        "meta_inclination": 42.9996,
        "meta_ra_of_asc_node": 96.6436,
        "meta_arg_of_pericenter": 290.4491,
        "meta_mean_anomaly": 207.1383,
        "meta_ephemeris_type": 0,
        "meta_classification_type": "U",
        "meta_norad_cat_id": 67042,
        "meta_element_set_no": 999,
        "meta_rev_at_epoch": 255,
        "meta_bstar": -0.021397,
        "meta_mean_motion_dot": -0.01888143,
        "meta_mean_motion_ddot": 0,
        "tle_line1": "1 67042U 25294N   25360.75003471 -.01888143  00000+0 -21397-1 0  9991",
        "tle_line2": "2 67042  42.9996  96.6436 0001321 290.4491 207.1383 15.64637526  2551"
      },
      "geometry": {
        "type": "Point",
        "coordinates": [
          -151.75476851614968,
          40.681165483657374
        ]
      }
    },
    {
      "type": "Feature",
      "properties": {
        "norad_id": 67043,
        "name": "STARLINK-35901",
        "group": "last-30-days",
        "lat": 40.11677499874163,
        "lon": -149.19135495079016,
        "alt_km": 371.2199492220825,
        "timestamp": "2025-12-26T22:28:04.500819+00:00",
        "meta_object_name": "STARLINK-35901",
        "meta_object_id": "2025-294P",
        "meta_epoch": "2025-12-26T18:00:02.998944",
        "meta_mean_motion": 15.64629192,
        "meta_eccentricity": 0.0001317,
        "meta_inclination": 42.9996,
        "meta_ra_of_asc_node": 96.6388,
        "meta_arg_of_pericenter": 291.0451,
        "meta_mean_anomaly": 208.5814,
        "meta_ephemeris_type": 0,
        "meta_classification_type": "U",
        "meta_norad_cat_id": 67043,
        "meta_element_set_no": 999,
        "meta_rev_at_epoch": 255,
        "meta_bstar": -0.021429,
        "meta_mean_motion_dot": -0.01890035,
        "meta_mean_motion_ddot": 0,
        "tle_line1": "1 67043U 25294P   25360.75003471 -.01890035  00000+0 -21429-1 0  9991",
        "tle_line2": "2 67043  42.9996  96.6388 0001317 291.0451 208.5814 15.64629192  2550"
      },
      "geometry": {
        "type": "Point",
        "coordinates": [
          -149.19135495079016,
          40.11677499874163
        ]
      }
    },
    {
      "type": "Feature",
      "properties": {
        "norad_id": 67044,
        "name": "STARLINK-35884",
        "group": "last-30-days",
        "lat": 39.504699928747705,
        "lon": -146.70244674601372,
        "alt_km": 371.3575402808083,
        "timestamp": "2025-12-26T22:28:04.500829+00:00",
        "meta_object_name": "STARLINK-35884",
        "meta_object_id": "2025-294Q",
        "meta_epoch": "2025-12-26T18:00:02.998944",
        "meta_mean_motion": 15.6462224,
        "meta_eccentricity": 0.0001342,
        "meta_inclination": 42.9999,
        "meta_ra_of_asc_node": 96.6339,
        "meta_arg_of_pericenter": 290.5823,
        "meta_mean_anomaly": 211.0581,
        "meta_ephemeris_type": 0,
        "meta_classification_type": "U",
        "meta_norad_cat_id": 67044,
        "meta_element_set_no": 999,
        "meta_rev_at_epoch": 255,
        "meta_bstar": -0.021451,
        "meta_mean_motion_dot": -0.01891338,
        "meta_mean_motion_ddot": 0,
        "tle_line1": "1 67044U 25294Q   25360.75003471 -.01891338  00000+0 -21451-1 0  9994",
        "tle_line2": "2 67044  42.9999  96.6339 0001342 290.5823 211.0581 15.64622240  2552"
      },
      "geometry": {
        "type": "Point",
        "coordinates": [
          -146.70244674601372,
          39.504699928747705
        ]
      }
    },
    {
      "type": "Feature",
      "properties": {
        "norad_id": 67045,
        "name": "STARLINK-35891",
        "group": "last-30-days",
        "lat": 38.786459657301904,
        "lon": -144.07402702871963,
        "alt_km": 371.49755908921816,
        "timestamp": "2025-12-26T22:28:04.500845+00:00",
        "meta_object_name": "STARLINK-35891",
        "meta_object_id": "2025-294R",
        "meta_epoch": "2025-12-26T18:00:02.998944",
        "meta_mean_motion": 15.64606245,
        "meta_eccentricity": 0.0001296,
        "meta_inclination": 42.9994,
        "meta_ra_of_asc_node": 96.6281,
        "meta_arg_of_pericenter": 288.9129,
        "meta_mean_anomaly": 214.9032,
        "meta_ephemeris_type": 0,
        "meta_classification_type": "U",
        "meta_norad_cat_id": 67045,
        "meta_element_set_no": 999,
        "meta_rev_at_epoch": 247,
        "meta_bstar": -0.02157,
        "meta_mean_motion_dot": -0.01899548,
        "meta_mean_motion_ddot": 0,
        "tle_line1": "1 67045U 25294R   25360.75003471 -.01899548  00000+0 -21570-1 0  9998",
        "tle_line2": "2 67045  42.9994  96.6281 0001296 288.9129 214.9032 15.64606245  2473"
      },
      "geometry": {
        "type": "Point",
        "coordinates": [
          -144.07402702871963,
          38.786459657301904
        ]
      }
    }
  ]
}